{"type":"FeatureCollection","features":[{"type":"Feature","id":"kunta1000k_2025.12","geometry":{"type":"MultiPolygon","coordinates":[[[[24.71349759,60.06636431],[24.7156243,60.06616413],[24.71969332,60.06635926],[24.72245767,60.0657431],[24.72271206,60.06467876],[24.72125989,60.06361261],[24.7186902,60.06267222],[24.71718717,60.06295],[24.71553759,60.06438325],[24.71519969,60.06326335],[24.71455357,60.06311304],[24.71365589,60.06354732],[24.7129369,60.06489157],[24.71349759,60.06636431]]],[[[24.65558671,60.08642957],[24.65181621,60.08542158],[24.65075845,60.08618265],[24.65008876,60.08734855],[24.65161686,60.08891193],[24.65492522,60.08974573],[24.65569001,60.08950099],[24.65627371,60.08810383],[24.65558671,60.08642957]]],[[[24.66307923,60.08222443],[24.6612093,60.08170773],[24.65772706,60.08172554],[24.65647005,60.07985547],[24.65609672,60.07972111],[24.65179207,60.08439329],[24.6524492,60.08469537],[24.65925839,60.08524526],[24.66785982,60.09008523],[24.67101178,60.08920277],[24.67078276,60.08798642],[24.66307923,60.08222443]]],[[[24.75479171,60.10435],[24.75530843,60.10361644],[24.75834719,60.1039612],[24.75900784,60.10370863],[24.76133001,60.10348257],[24.76197215,60.10293827],[24.76125859,60.10255352],[24.76227435,60.10193352],[24.76422756,60.10172171],[24.76484399,60.10064255],[24.7643528,60.10041646],[24.76454825,60.0998816],[24.76268517,60.09922571],[24.76027617,60.09966787],[24.75806683,60.09921326],[24.75646951,60.09944488],[24.75609106,60.09907589],[24.75398195,60.09944638],[24.75257222,60.09934075],[24.75086385,60.10048227],[24.75078828,60.10099443],[24.75151317,60.10151341],[24.7504008,60.10221892],[24.74996684,60.10401672],[24.75229428,60.10439458],[24.75479171,60.10435]]],[[[24.76930364,60.10163169],[24.76666825,60.10152663],[24.76315176,60.10250865],[24.76059412,60.10422083],[24.76055349,60.10464363],[24.76049755,60.10522591],[24.76292325,60.10663953],[24.76585453,60.1063042],[24.76685867,60.10552715],[24.76631741,60.10512113],[24.76722207,60.10461708],[24.76904787,60.10435353],[24.76795235,60.10310621],[24.77013167,60.1028829],[24.76930364,60.10163169]]],[[[24.72640916,60.10817236],[24.72618656,60.10662228],[24.7249893,60.10600246],[24.72519072,60.10565829],[24.72386923,60.10374581],[24.72403478,60.10280971],[24.72325537,60.10264003],[24.72072591,60.1032967],[24.7190274,60.10486539],[24.71938221,60.10521242],[24.71865324,60.10554997],[24.71915927,60.106352],[24.72179082,60.10678857],[24.72235635,60.10780348],[24.72295008,60.10811631],[24.72394486,60.1080593],[24.72414922,60.10845279],[24.72583424,60.10847411],[24.72640916,60.10817236]]],[[[24.67396378,60.1004429],[24.6731175,60.09863882],[24.66831394,60.09862423],[24.6636746,60.09638203],[24.65985446,60.09623808],[24.65846747,60.09564764],[24.65550293,60.09723229],[24.65533789,60.0997077],[24.65763923,60.10124301],[24.6585364,60.10458069],[24.66047593,60.10670045],[24.66052605,60.10765832],[24.66398599,60.10931566],[24.66945038,60.10879963],[24.67147164,60.10810749],[24.67235573,60.10715047],[24.67732357,60.10656922],[24.67762396,60.10508047],[24.67573394,60.10206258],[24.67396378,60.1004429]]],[[[24.67141264,60.10914261],[24.67108009,60.1089326],[24.66851925,60.109751],[24.66740183,60.10980075],[24.66566847,60.11057361],[24.66693584,60.11180784],[24.66795094,60.11414202],[24.66917216,60.11464326],[24.67065403,60.11381424],[24.67028493,60.11305576],[24.67095043,60.11257917],[24.6710548,60.1110434],[24.67158238,60.11080377],[24.67087173,60.10989777],[24.67141264,60.10914261]]],[[[24.74335626,60.11634781],[24.74441189,60.11571582],[24.74661439,60.11579637],[24.74753257,60.11432043],[24.74605608,60.11372828],[24.74416988,60.11368769],[24.74428371,60.11327766],[24.74270492,60.11206497],[24.74079117,60.11196205],[24.74018852,60.11167787],[24.73940506,60.11209179],[24.73777551,60.11351063],[24.73895931,60.11568997],[24.74027028,60.11626059],[24.74195219,60.11599616],[24.74335626,60.11634781]]],[[[24.69909138,60.12003383],[24.70158718,60.11981788],[24.70234368,60.12008055],[24.70316731,60.11984518],[24.70315415,60.11968891],[24.7005033,60.11824395],[24.70025499,60.11754885],[24.69828461,60.11689501],[24.69691556,60.11670025],[24.69500562,60.11689693],[24.69481818,60.11614329],[24.6957552,60.11594257],[24.69578598,60.11559126],[24.68747436,60.11366186],[24.68678326,60.11369122],[24.68583498,60.11427517],[24.68702573,60.11464705],[24.68701175,60.11562317],[24.6884508,60.11588614],[24.68935522,60.11651005],[24.6941316,60.11756034],[24.69441441,60.11786137],[24.69349482,60.11822876],[24.69595826,60.11963792],[24.69867089,60.12059397],[24.69909138,60.12003383]]],[[[24.72432783,60.11210423],[24.71209761,60.10669868],[24.7063726,60.10629248],[24.70139576,60.10721598],[24.69933622,60.10772544],[24.69668046,60.10960599],[24.69149486,60.10957421],[24.68739619,60.10772346],[24.68414315,60.10766983],[24.68451962,60.10989718],[24.68745127,60.11174977],[24.69033999,60.11285946],[24.69303276,60.11338197],[24.71142253,60.12170789],[24.71556073,60.12214938],[24.72307045,60.12157611],[24.73637317,60.12174645],[24.73948558,60.1181641],[24.73420397,60.11696402],[24.72843019,60.11672752],[24.72921412,60.11498276],[24.72432783,60.11210423]]],[[[24.73823101,60.12645115],[24.73961322,60.12631272],[24.74018333,60.12653982],[24.74098351,60.1261739],[24.74203505,60.12316265],[24.74143454,60.12234284],[24.74182035,60.12153484],[24.7405978,60.12113124],[24.73861227,60.12195583],[24.73853928,60.12318283],[24.73526062,60.12461821],[24.73620001,60.12519031],[24.73664173,60.12692461],[24.73823101,60.12645115]]],[[[24.81470962,60.13324868],[24.81521681,60.13204339],[24.81581269,60.13159285],[24.81664129,60.13163335],[24.81660998,60.13060263],[24.81480672,60.13082588],[24.81343369,60.13005775],[24.81238929,60.12879459],[24.81166061,60.12876977],[24.81103575,60.12756401],[24.80913511,60.12761182],[24.80873561,60.12801505],[24.809324,60.12870467],[24.80861979,60.12962557],[24.80913684,60.13090214],[24.81049171,60.13119564],[24.81177955,60.13243864],[24.81330698,60.13241811],[24.8130216,60.13297903],[24.81361589,60.1334397],[24.81470962,60.13324868]]],[[[24.64237599,60.13131087],[24.64301071,60.1295449],[24.64487866,60.12958563],[24.64684177,60.12879849],[24.64306238,60.12773432],[24.64083571,60.12762201],[24.63876837,60.13080751],[24.63931522,60.13124479],[24.64086759,60.13147967],[24.64237599,60.13131087]]],[[[24.73118652,60.13108989],[24.72745911,60.12962068],[24.72759307,60.12813993],[24.72976486,60.12560215],[24.72986063,60.12477716],[24.72774172,60.12301545],[24.72531011,60.12341911],[24.72267137,60.12666836],[24.71971017,60.12686876],[24.71766046,60.1258933],[24.71718618,60.12375407],[24.71675995,60.12343919],[24.71230829,60.12295696],[24.70240033,60.12611889],[24.69941282,60.12603731],[24.69885121,60.12696099],[24.70065145,60.12848738],[24.7018718,60.12986925],[24.70276985,60.13228533],[24.70662057,60.1321654],[24.71150118,60.13133232],[24.71538298,60.13025984],[24.71893612,60.1312918],[24.72206435,60.13407303],[24.72566674,60.13432531],[24.72951032,60.13339333],[24.73118652,60.13108989]]],[[[24.76743387,60.13220145],[24.76766976,60.13152059],[24.76713237,60.13129361],[24.76555833,60.13216085],[24.76484063,60.13202606],[24.76389031,60.13243307],[24.76561854,60.13385503],[24.7652627,60.13451969],[24.76659701,60.13571145],[24.76778278,60.13586217],[24.76888961,60.13524549],[24.7702817,60.13513723],[24.77106078,60.13460733],[24.77323022,60.13447749],[24.77231304,60.13320026],[24.76993783,60.13229848],[24.76743387,60.13220145]]],[[[24.79294757,60.13426095],[24.79012076,60.13095024],[24.78898713,60.131152],[24.78566051,60.13073218],[24.78463898,60.12948848],[24.77982322,60.12832168],[24.77353605,60.12959414],[24.77520788,60.13247564],[24.77719737,60.13445229],[24.78143891,60.1358398],[24.78403873,60.13603945],[24.78855524,60.13716235],[24.79294757,60.13426095]]],[[[24.7574885,60.14311537],[24.75878077,60.14282284],[24.76158828,60.1430565],[24.76310462,60.14245274],[24.76436621,60.14244524],[24.76528679,60.14191501],[24.76413707,60.14060972],[24.76549796,60.13983554],[24.76541285,60.13834317],[24.76059867,60.13801439],[24.75945913,60.13745631],[24.75970701,60.13623169],[24.7579611,60.13676834],[24.75750101,60.13769648],[24.7556046,60.13889372],[24.75649255,60.13949769],[24.7561478,60.14094777],[24.75823799,60.14143778],[24.75704676,60.142172],[24.75694747,60.14281847],[24.7574885,60.14311537]]],[[[24.82632211,60.14693289],[24.82266978,60.14575297],[24.81974845,60.14594556],[24.81966521,60.14523331],[24.818773,60.14498921],[24.81763132,60.14539997],[24.81751557,60.14679741],[24.81883409,60.14769362],[24.82124129,60.14857683],[24.82351003,60.14897717],[24.82632211,60.14693289]]],[[[24.80645421,60.15015651],[24.8041154,60.14935574],[24.8015799,60.14958931],[24.80013904,60.15029321],[24.80029573,60.15095689],[24.79926351,60.15133059],[24.79647213,60.15151742],[24.79592485,60.15416915],[24.79673904,60.15483077],[24.80027358,60.15299376],[24.80616169,60.15125575],[24.80670055,60.15095083],[24.80645421,60.15015651]]],[[[24.80906875,60.15377623],[24.80836951,60.15322293],[24.80590614,60.15360415],[24.80524175,60.15362051],[24.80257593,60.15505396],[24.80213798,60.15617003],[24.80458853,60.15762582],[24.80823943,60.15810935],[24.80909033,60.15796929],[24.80900735,60.15710332],[24.80769976,60.15669639],[24.80808706,60.15530316],[24.80854215,60.15523794],[24.80906875,60.15377623]]],[[[24.84438837,60.16602554],[24.84441198,60.16558409],[24.84430285,60.16514541],[24.84162924,60.16567563],[24.84104472,60.16490535],[24.83848781,60.16417316],[24.83676825,60.16333454],[24.83640306,60.16275272],[24.83486774,60.16289689],[24.83440129,60.16343295],[24.83461058,60.16413944],[24.83719933,60.16476012],[24.83979627,60.16611848],[24.83880665,60.1665911],[24.83942256,60.16708088],[24.840909,60.16702529],[24.84438837,60.16602554]]],[[[24.7492832,60.34178332],[24.74623665,60.32227428],[24.76092794,60.32537628],[24.77180206,60.29923148],[24.76494085,60.27123726],[24.78475411,60.241505],[24.83140306,60.25405518],[24.8419134,60.22120038],[24.84806237,60.21859972],[24.84621087,60.21057232],[24.8459792,60.20956759],[24.84216132,60.20899368],[24.84109183,60.20702936],[24.83763137,60.20587899],[24.83005968,60.20589822],[24.82945685,60.20398755],[24.82693444,60.20255052],[24.82391657,60.19909572],[24.8228167,60.19858146],[24.82125399,60.19856869],[24.81934141,60.19806953],[24.81830854,60.19742024],[24.81511734,60.1968471],[24.81444088,60.1963798],[24.81435718,60.19507916],[24.81558844,60.19172272],[24.81636892,60.19097701],[24.81979038,60.18985379],[24.8206564,60.18887135],[24.82933723,60.19065175],[24.83045927,60.19172306],[24.83167423,60.19200675],[24.83464686,60.19193182],[24.83647269,60.19272702],[24.84056546,60.19073592],[24.84092592,60.18966269],[24.83807065,60.18622863],[24.83822928,60.18381128],[24.8359089,60.18215138],[24.83522776,60.1811312],[24.83780211,60.17962203],[24.83678178,60.17803138],[24.83757233,60.17632603],[24.83160117,60.1755414],[24.82976237,60.17354964],[24.83073862,60.17228244],[24.82856011,60.17184523],[24.83057493,60.16927325],[24.83525844,60.1681004],[24.83536664,60.16657541],[24.83238773,60.16541427],[24.82960214,60.16697586],[24.82805893,60.16692522],[24.8249484,60.16738178],[24.82288025,60.16793447],[24.82035727,60.16925353],[24.81999752,60.1700478],[24.82220925,60.17248496],[24.82244586,60.175541],[24.81882772,60.17541237],[24.81753804,60.17472085],[24.81542512,60.17458355],[24.81514135,60.17137364],[24.81563737,60.17017513],[24.81361834,60.16903619],[24.80943796,60.1678576],[24.80908435,60.16504139],[24.80727634,60.16426913],[24.80765004,60.16245477],[24.80347403,60.16222537],[24.80357072,60.15998675],[24.80189471,60.15911862],[24.79992784,60.15848274],[24.79365811,60.1580435],[24.7888025,60.15618915],[24.7832563,60.15600723],[24.77733822,60.15478793],[24.77347376,60.15480498],[24.77274008,60.1561293],[24.77105256,60.15596826],[24.7693049,60.15580147],[24.76961001,60.15437983],[24.76662877,60.15292021],[24.76240455,60.1499499],[24.75934995,60.15102949],[24.75612003,60.15083034],[24.75435004,60.14980469],[24.75326441,60.14677761],[24.75144081,60.14467995],[24.74952491,60.14398218],[24.7466134,60.14413727],[24.74050589,60.14509605],[24.73884801,60.14325881],[24.73519997,60.14432696],[24.73260033,60.14560028],[24.7326055,60.14639657],[24.73600739,60.14735498],[24.73477777,60.14928769],[24.73303566,60.14969004],[24.72332823,60.14909373],[24.70798217,60.14149533],[24.7037659,60.14141092],[24.69981852,60.14254201],[24.69884849,60.14251832],[24.69654512,60.14186397],[24.69312925,60.14022584],[24.68635524,60.13968563],[24.68517864,60.13811096],[24.69013884,60.13658308],[24.69118941,60.13663096],[24.69215021,60.13734926],[24.69607354,60.13671773],[24.6991507,60.13385279],[24.69979265,60.13107655],[24.69772662,60.12887742],[24.69582299,60.12788586],[24.69090673,60.12821047],[24.68166986,60.1265489],[24.67998226,60.12401805],[24.67700809,60.12180522],[24.67898267,60.12070031],[24.6812648,60.12078791],[24.6850649,60.12042312],[24.68739277,60.11883497],[24.68703422,60.11780452],[24.68297591,60.11683102],[24.67649826,60.11593096],[24.67368811,60.11695236],[24.67464975,60.11810896],[24.67279611,60.11963198],[24.66983721,60.12043443],[24.67009637,60.12325099],[24.66316389,60.12931253],[24.663469,60.13008536],[24.66201057,60.13509685],[24.66022287,60.13559797],[24.65661061,60.13544389],[24.65155295,60.13628147],[24.65455598,60.13845306],[24.65487716,60.14008057],[24.65035232,60.13946715],[24.64358005,60.13762746],[24.64015778,60.13799192],[24.6385094,60.1434237],[24.63353053,60.14796552],[24.63336196,60.14923923],[24.63173645,60.15062753],[24.62797152,60.15177975],[24.62613561,60.15289404],[24.62533067,60.15453891],[24.62090764,60.15699388],[24.61576618,60.15736321],[24.61103969,60.15811631],[24.60916753,60.15924455],[24.61070461,60.16119373],[24.60641726,60.16364714],[24.60108584,60.16386911],[24.59609101,60.1629947],[24.59354473,60.16328313],[24.59142553,60.16558717],[24.58611064,60.16816223],[24.58424118,60.16731473],[24.58089502,60.16910985],[24.57838355,60.17471403],[24.5773138,60.17701496],[24.57284804,60.17710411],[24.57138703,60.17588202],[24.57072301,60.17585735],[24.56905302,60.17930241],[24.53621396,60.19646419],[24.52474725,60.20534864],[24.50320074,60.21286294],[24.52540623,60.23102206],[24.5250236,60.24658199],[24.50433558,60.25543028],[24.50444902,60.27408621],[24.51556882,60.28129154],[24.512038,60.29173428],[24.50016935,60.32628883],[24.56267178,60.3140849],[24.59565387,60.32418549],[24.6140893,60.34436623],[24.62769392,60.35924143],[24.66470539,60.3627702],[24.68396389,60.35799859],[24.70226625,60.35345999],[24.7492832,60.34178332]],[[24.70182049,60.20624179],[24.7221761,60.20256273],[24.73916198,60.2071096],[24.75091363,60.21821061],[24.74487134,60.22038166],[24.7343201,60.22417147],[24.71589578,60.22472122],[24.70626395,60.2250076],[24.67747243,60.2153969],[24.67528749,60.21103141],[24.70182049,60.20624179]]]]},"geometry_name":"geom","properties":{"id":12,"kunta":"049","vuosi":2025,"nimi":"Espoo","namn":"Esbo","name":"Espoo"},"bbox":[24.50016935,60.06267222,24.84806237,60.3627702]},{"type":"Feature","id":"kunta1000k_2025.33","geometry":{"type":"MultiPolygon","coordinates":[[[[24.83607234,60.10040952],[24.83214974,60.09947043],[24.83010159,60.0996803],[24.82878565,60.10040553],[24.8285261,60.10088184],[24.82920665,60.10111889],[24.82923108,60.1017561],[24.83100933,60.10259148],[24.83383386,60.10241751],[24.83455976,60.10176926],[24.83639435,60.10134305],[24.83607234,60.10040952]]],[[[25.01784159,60.10511114],[25.0162087,60.104054],[25.01801329,60.10341221],[25.0183179,60.10184093],[25.01750342,60.09931548],[25.01566998,60.0985531],[25.01334941,60.09865276],[25.01337089,60.10226644],[25.01261442,60.10282673],[25.01374609,60.10485936],[25.01504019,60.10434681],[25.01622109,60.10432778],[25.01774503,60.10515182],[25.01698505,60.1056895],[25.01778641,60.10646129],[25.01971802,60.10668448],[25.01958922,60.10515424],[25.01784159,60.10511114]]],[[[25.07415671,60.10687506],[25.06583923,60.10242913],[25.0641809,60.10225204],[25.05412738,60.09899683],[25.05162851,60.09731772],[25.04710682,60.09569225],[25.04369369,60.09540144],[25.04127515,60.10096537],[25.04129942,60.10176338],[25.04263262,60.1029099],[25.04293163,60.104496],[25.04677367,60.10436572],[25.05295732,60.10521809],[25.06114703,60.10431631],[25.06419052,60.10457618],[25.06746789,60.10430975],[25.07390038,60.107696],[25.07415671,60.10687506]]],[[[24.89507323,60.13070703],[24.89222884,60.13026397],[24.89077758,60.13043785],[24.88506172,60.12806872],[24.88174473,60.12773889],[24.88118883,60.12913283],[24.88254911,60.1307866],[24.88534519,60.13245066],[24.88618996,60.13387473],[24.88586096,60.13450455],[24.88807234,60.13588654],[24.88930874,60.13511111],[24.89330853,60.13379049],[24.89433507,60.13289346],[24.89507323,60.13070703]]],[[[25.0114552,60.13610089],[25.01191871,60.13599908],[25.02014814,60.13737326],[25.02251212,60.1360579],[25.02159866,60.13503406],[25.02228059,60.13470185],[25.02319686,60.13280055],[25.01918463,60.13162387],[25.01096686,60.13446403],[25.00003764,60.13090004],[24.99542994,60.13098224],[24.99725776,60.13247689],[24.9944543,60.1345848],[24.99409857,60.13830281],[24.9984168,60.13966714],[25.00465187,60.1403049],[25.00950984,60.13994452],[25.01066111,60.13845167],[25.00943492,60.13733946],[25.00970819,60.13648459],[25.0114552,60.13610089]]],[[[24.91880987,60.13907856],[24.91960415,60.13842754],[24.91862694,60.13853466],[24.91730481,60.13604691],[24.91636949,60.13580823],[24.91372724,60.13586199],[24.91152298,60.13680002],[24.91118437,60.13630015],[24.90948245,60.13676165],[24.90949153,60.13741393],[24.91242698,60.13930618],[24.91271579,60.13983287],[24.91450902,60.1401737],[24.91880987,60.13907856]]],[[[24.98693803,60.14430348],[24.98988336,60.14247351],[24.99002777,60.14189122],[24.9888708,60.14169025],[24.99077217,60.13925072],[24.99100109,60.13861303],[24.99014467,60.13776509],[24.9855257,60.13788755],[24.98369422,60.13933029],[24.98395808,60.14102053],[24.98287716,60.14125685],[24.98225428,60.14108487],[24.98067301,60.1421196],[24.98046627,60.14386101],[24.97923701,60.14371517],[24.97769362,60.14521138],[24.98010262,60.14578743],[24.98045966,60.14650619],[24.986425,60.14551628],[24.98718479,60.14476985],[24.98693803,60.14430348]]],[[[25.10146884,60.14803371],[25.09876267,60.14752459],[25.09726058,60.14759969],[25.09686215,60.14732157],[25.09836139,60.14662442],[25.09763582,60.14623649],[25.09624387,60.14629036],[25.09199261,60.14731731],[25.09132863,60.14819064],[25.09265649,60.14861415],[25.09489832,60.14869795],[25.09484672,60.14968028],[25.09734622,60.15012985],[25.10007186,60.14955005],[25.10146884,60.14803371]]],[[[24.99408642,60.14366337],[24.99182159,60.14300925],[24.99141217,60.14303422],[24.99015257,60.14311105],[24.98749519,60.14531311],[24.98163459,60.14744878],[24.98141123,60.14779594],[24.98261666,60.14910821],[24.98947368,60.14925273],[24.99125418,60.14832321],[24.99198919,60.14642007],[24.99393504,60.14482192],[24.99408642,60.14366337]]],[[[25.01379729,60.15557148],[25.01429022,60.15489968],[25.01516517,60.15498211],[25.01617012,60.15427351],[25.01756587,60.15376861],[25.01497507,60.15156985],[25.01464057,60.15068355],[25.01276654,60.14978935],[25.01000897,60.15152025],[25.01002485,60.15311932],[25.01111734,60.1554683],[25.01263441,60.15607742],[25.01379729,60.15557148]]],[[[25.05462049,60.15618418],[25.06213426,60.15205004],[25.06464701,60.15298475],[25.06769203,60.15293787],[25.0696301,60.15156901],[25.07817318,60.15073005],[25.07944986,60.15031372],[25.08093897,60.14886622],[25.08496678,60.14649638],[25.08032007,60.14517421],[25.07649118,60.14478227],[25.06391359,60.14537043],[25.05820386,60.14419379],[25.05723124,60.14295698],[25.05747957,60.14054324],[25.05880758,60.13999042],[25.06079381,60.13969171],[25.06415282,60.13821077],[25.06184429,60.13652167],[25.0577249,60.13607435],[25.05220096,60.13718813],[25.04791672,60.13754759],[25.04326292,60.13515961],[25.03545267,60.13514973],[25.03310079,60.13297571],[25.03009168,60.13338634],[25.0285917,60.13493061],[25.0283978,60.13734065],[25.02938405,60.14259353],[25.02581511,60.14478225],[25.03082743,60.14709256],[25.03540381,60.14800774],[25.037412,60.1498524],[25.04188623,60.1523267],[25.04499953,60.15461348],[25.05023641,60.1566741],[25.05462049,60.15618418]]],[[[25.14762625,60.15926669],[25.14524451,60.15737303],[25.14393792,60.15745414],[25.14066626,60.15676178],[25.1395456,60.15701373],[25.13745093,60.15624029],[25.13501943,60.15546573],[25.13381341,60.15539931],[25.13027886,60.15589607],[25.12766247,60.15716716],[25.1280624,60.15790694],[25.1333498,60.15843563],[25.13675973,60.16030147],[25.14329676,60.16007386],[25.14540808,60.15937037],[25.14762625,60.15926669]]],[[[25.10878404,60.16247784],[25.11268514,60.16211877],[25.11574491,60.16244462],[25.12109936,60.16160892],[25.12452459,60.16148942],[25.12546311,60.16188029],[25.12636657,60.16177329],[25.12688954,60.16133453],[25.12539466,60.16002924],[25.12245751,60.15851699],[25.12231695,60.15704773],[25.12459581,60.15631551],[25.12643378,60.15672662],[25.12786548,60.15581071],[25.12946302,60.15544673],[25.12955273,60.1538545],[25.12416842,60.15283452],[25.12338313,60.15323414],[25.12054642,60.15290488],[25.11558576,60.15314614],[25.11014924,60.15460379],[25.10879681,60.15560973],[25.10659228,60.15600208],[25.10279341,60.15590924],[25.10022905,60.15403316],[25.09542156,60.15409169],[25.09361705,60.15480812],[25.0928903,60.15563412],[25.09432237,60.15735038],[25.09583735,60.15757509],[25.09771771,60.15927104],[25.09935706,60.16014798],[25.10259434,60.15981994],[25.10291478,60.15858192],[25.10605726,60.15872502],[25.10756573,60.15936822],[25.10502,60.16116683],[25.10824099,60.16190001],[25.10878404,60.16247784]]],[[[24.84507347,60.16582867],[24.84783366,60.1655717],[24.8488128,60.16601987],[24.84986058,60.16592709],[24.85183025,60.16480637],[24.85323795,60.16451055],[24.85238428,60.16339146],[24.85126011,60.16299441],[24.85014382,60.16148573],[24.84757138,60.16143742],[24.84710999,60.16227523],[24.84777952,60.16332396],[24.84899259,60.16373379],[24.84855706,60.16430159],[24.84430285,60.16514541],[24.84441198,60.16558409],[24.84438837,60.16602554],[24.84507347,60.16582867]]],[[[24.97329319,60.16945792],[24.97365724,60.16911468],[24.9756761,60.16933264],[24.97735755,60.16917837],[24.98086228,60.1672619],[24.96981111,60.16307996],[24.96591252,60.16399989],[24.95827679,60.16669546],[24.96117499,60.16919949],[24.96270529,60.16927691],[24.96797262,60.1690312],[24.97004876,60.16860353],[24.97329319,60.16945792]]],[[[24.86638101,60.16440555],[24.87466772,60.16438934],[24.88033136,60.16565533],[24.89089266,60.1641977],[24.89337819,60.16230241],[24.89426686,60.15951513],[24.8932066,60.15851606],[24.88980913,60.1581161],[24.88652007,60.15722037],[24.88804092,60.15409486],[24.89274379,60.15053648],[24.89066374,60.1496743],[24.88983225,60.14778029],[24.89017686,60.14666383],[24.88862433,60.14502742],[24.88430957,60.14525955],[24.88305455,60.14613167],[24.88074465,60.14619926],[24.87870153,60.14562781],[24.87653163,60.14410097],[24.87268034,60.14468809],[24.87332503,60.1468399],[24.87556053,60.14748322],[24.87575003,60.15014865],[24.8726662,60.15475693],[24.86292146,60.15291325],[24.85845311,60.15163979],[24.85469742,60.15326082],[24.85805861,60.15840355],[24.8572491,60.15987259],[24.85296969,60.16143155],[24.85525742,60.16414088],[24.85630362,60.16681792],[24.85572112,60.16827367],[24.85590127,60.17023626],[24.85947804,60.17065085],[24.86094915,60.16911598],[24.86040112,60.16827169],[24.86061137,60.16686992],[24.86230605,60.16555206],[24.86638101,60.16440555]]],[[[24.98794979,60.17560438],[24.98914905,60.17532068],[24.99115143,60.17625382],[24.99307504,60.17615114],[24.99326633,60.1755542],[24.99048694,60.17494956],[24.98827067,60.1736917],[24.98890435,60.17254703],[24.98990655,60.17220587],[24.98638065,60.17043058],[24.98439283,60.17044582],[24.98398308,60.17229773],[24.98000397,60.17316723],[24.9787275,60.17420555],[24.98071595,60.17667946],[24.98380717,60.17733016],[24.98562985,60.17688135],[24.98794979,60.17560438]]],[[[24.98938994,60.18317654],[24.99051751,60.1825749],[24.99283411,60.18281066],[24.99879916,60.18205143],[25.00019969,60.18163171],[25.00104371,60.18074581],[25.00000464,60.1802396],[24.99835742,60.18013394],[24.99758823,60.17937741],[24.99158306,60.17829086],[24.98967574,60.17806602],[24.98587672,60.17925258],[24.98246055,60.17922237],[24.98172694,60.17972044],[24.98275303,60.18140051],[24.9849561,60.1818506],[24.98821813,60.18322431],[24.98938994,60.18317654]]],[[[24.85692825,60.17396869],[24.85305842,60.17388774],[24.85035227,60.17482904],[24.8508217,60.1754966],[24.84777564,60.17694353],[24.84645284,60.17911241],[24.84372871,60.18030797],[24.8449131,60.18149167],[24.84708018,60.18226534],[24.84762249,60.18299009],[24.85223316,60.18323198],[24.85607276,60.18193178],[24.85920993,60.18042333],[24.85901895,60.1797111],[24.85635598,60.17720897],[24.85402365,60.1765519],[24.85692825,60.17396869]]],[[[25.0629867,60.18309891],[25.06521055,60.17862821],[25.06330306,60.17633583],[25.06335239,60.17447602],[25.06672152,60.17161698],[25.06722299,60.17056284],[25.06695634,60.16834581],[25.06338832,60.16654323],[25.06607973,60.16506913],[25.07204067,60.1670816],[25.07610744,60.16897423],[25.0752643,60.17113203],[25.0804622,60.1727255],[25.08304937,60.17222869],[25.08632963,60.1702972],[25.08658385,60.16794885],[25.08821305,60.16763178],[25.08964111,60.16735383],[25.09323109,60.16836097],[25.09741028,60.16433135],[25.09648184,60.16080692],[25.08805277,60.15965425],[25.08066866,60.15799935],[25.0808018,60.15933453],[25.07752507,60.15977071],[25.07481252,60.15863611],[25.0678867,60.15764932],[25.0655094,60.15794383],[25.06160344,60.15899551],[25.05520798,60.15975359],[25.04813723,60.15967327],[25.04157055,60.16042562],[25.03932303,60.16252186],[25.03560151,60.164089],[25.03298325,60.16410097],[25.02972826,60.16201558],[25.02721072,60.16330381],[25.02284588,60.16449597],[25.01730969,60.16294631],[25.01465797,60.16280131],[25.01189015,60.16310429],[25.01090266,60.16459355],[25.01143127,60.16707978],[25.00999953,60.17030391],[25.01059976,60.17169849],[25.01265394,60.17333059],[25.02401241,60.17862468],[25.0287969,60.18042219],[25.03408253,60.18144543],[25.03793645,60.18020822],[25.0421951,60.17995972],[25.04621591,60.18093394],[25.04673874,60.18303986],[25.0445847,60.18341489],[25.04232979,60.18472385],[25.04370964,60.18563213],[25.05359115,60.1873657],[25.05792989,60.18769797],[25.06268131,60.18517766],[25.0629867,60.18309891]]],[[[24.88755368,60.17748619],[24.88519552,60.17624339],[24.88296412,60.17635855],[24.88112543,60.1770799],[24.88022255,60.17829269],[24.88117268,60.18071039],[24.87881974,60.18206423],[24.8805879,60.18361544],[24.88316082,60.18615028],[24.88597713,60.18578077],[24.88792994,60.18408021],[24.88867567,60.1826523],[24.88787525,60.18151739],[24.88895389,60.17994375],[24.88750988,60.17853916],[24.88755368,60.17748619]]],[[[25.08635298,60.18608863],[25.08652582,60.18423855],[25.08124718,60.18219263],[25.07936546,60.18095188],[25.0780036,60.1792992],[25.06963866,60.17980589],[25.06776584,60.18063803],[25.06649976,60.18470224],[25.06798934,60.18577258],[25.07232983,60.18514556],[25.07382514,60.1891462],[25.07812075,60.18973644],[25.0843159,60.18991315],[25.08635298,60.18608863]]],[[[25.01762014,60.17991648],[25.01584432,60.17903449],[25.01443135,60.17905855],[25.01059676,60.17989566],[25.00539565,60.18193572],[25.00093381,60.18299996],[24.99638277,60.18390038],[24.99582684,60.18446141],[24.99348629,60.18485537],[24.99491864,60.18696605],[24.9969939,60.18740449],[24.99866495,60.18869522],[25.00037362,60.18876989],[25.00261727,60.18942135],[25.00320672,60.19022072],[25.00815289,60.19100444],[25.01762268,60.18827803],[25.01746808,60.18815517],[25.01994051,60.18732625],[25.0176273,60.18421917],[25.01602844,60.18371208],[25.0158729,60.18208479],[25.01823714,60.18093152],[25.01762014,60.17991648]]],[[[24.85884478,60.18272453],[24.85854995,60.18243693],[24.85319592,60.18482619],[24.85753503,60.18613739],[24.86031064,60.18732758],[24.8608259,60.18793646],[24.86399703,60.18812218],[24.86510374,60.18882088],[24.86868919,60.1897641],[24.86934292,60.18929215],[24.86893292,60.18797279],[24.87149372,60.18758009],[24.87155033,60.18728818],[24.87038088,60.18626414],[24.86816587,60.18590778],[24.86628609,60.18463819],[24.86387532,60.18401582],[24.86064009,60.18364978],[24.86015229,60.18291822],[24.85884478,60.18272453]]],[[[25.06863105,60.18828144],[25.06440949,60.18697282],[25.06299053,60.18704653],[25.06113768,60.18714276],[25.05773219,60.18917325],[25.05064661,60.18919116],[25.04950764,60.18979604],[25.0491588,60.19076109],[25.05143067,60.19198476],[25.05548523,60.19214499],[25.06138611,60.19307384],[25.06269567,60.19358034],[25.0654392,60.19569651],[25.06672263,60.19598656],[25.07134601,60.19468818],[25.07326387,60.19365778],[25.07335243,60.1927889],[25.0721451,60.19162877],[25.07181223,60.19055594],[25.06863105,60.18828144]]],[[[25.20124763,60.20568689],[25.2066399,60.20531906],[25.20838359,60.20548869],[25.21048638,60.20508638],[25.21228208,60.2044527],[25.21589775,60.20236445],[25.21686624,60.20168011],[25.21769721,60.20005522],[25.21548651,60.19999657],[25.21253831,60.20133056],[25.21122132,60.20247961],[25.20945279,60.20186935],[25.20576206,60.20144155],[25.2022855,60.20301882],[25.2003854,60.20494804],[25.20124763,60.20568689]]],[[[25.23846862,60.24955456],[25.23621294,60.24699665],[25.23306309,60.24608254],[25.22915097,60.24796703],[25.22592865,60.24726272],[25.2248828,60.24611413],[25.22309822,60.245449],[25.22082935,60.24663077],[25.21528305,60.24697756],[25.20378042,60.25059726],[25.20342752,60.25125494],[25.21025059,60.25386342],[25.2155923,60.25462082],[25.21678999,60.25551649],[25.22687012,60.2562495],[25.2324972,60.25510901],[25.23846862,60.24955456]]],[[[25.24386461,60.28488332],[25.24412743,60.278341],[25.25229097,60.27575065],[25.25090243,60.27351921],[25.23484603,60.27196288],[25.22733987,60.26110411],[25.23279642,60.25849543],[25.23077069,60.25840826],[25.22818243,60.25793859],[25.21876676,60.25746169],[25.21339246,60.25701797],[25.20177931,60.25298476],[25.19833972,60.25106474],[25.19897632,60.25067005],[25.20048216,60.24973638],[25.20878645,60.24678061],[25.21667483,60.24453465],[25.21842833,60.24234125],[25.21744283,60.2408067],[25.21212112,60.24084492],[25.20952539,60.24116094],[25.20851346,60.23910607],[25.21207489,60.23780098],[25.20915237,60.23588068],[25.20883376,60.23494872],[25.20585574,60.23340877],[25.20179169,60.23494955],[25.19543101,60.23476349],[25.19145762,60.23628511],[25.18795146,60.23575122],[25.18620777,60.23403632],[25.18741917,60.23217581],[25.18871424,60.23212781],[25.19023015,60.23162138],[25.19200501,60.23062335],[25.19172684,60.22880193],[25.18793324,60.22894518],[25.18268007,60.23045607],[25.17677199,60.23112242],[25.17599038,60.23048248],[25.1760352,60.22987073],[25.17608121,60.22924266],[25.17813439,60.22765428],[25.18241869,60.22801499],[25.18472766,60.22699303],[25.18642887,60.22571129],[25.18650603,60.22486107],[25.18527507,60.22440041],[25.19752566,60.22177238],[25.19727896,60.21980683],[25.19648893,60.21869709],[25.20348477,60.2145881],[25.19075513,60.20922164],[25.18707091,60.21046373],[25.18397328,60.21019772],[25.17766774,60.20764795],[25.17667377,60.20635237],[25.18150015,60.20388105],[25.18510044,60.20266045],[25.18725318,60.20082566],[25.1872117,60.19969655],[25.18335682,60.19810372],[25.18020527,60.19589714],[25.17470057,60.19333006],[25.16903233,60.19542298],[25.16309326,60.1979161],[25.16029314,60.1978484],[25.16028784,60.20005442],[25.16082608,60.2003809],[25.15934193,60.20166133],[25.14111352,60.19912596],[25.13590484,60.20016593],[25.1345489,60.19717244],[25.1361035,60.19462035],[25.13878665,60.19330387],[25.14321458,60.19338668],[25.14403465,60.19428852],[25.14622149,60.1950971],[25.14851214,60.19517995],[25.15012943,60.19349953],[25.14704116,60.19276269],[25.14521739,60.19140688],[25.14707808,60.18978356],[25.14935183,60.18857285],[25.15027877,60.18624348],[25.14604789,60.18573333],[25.14004368,60.1874672],[25.13560539,60.1879635],[25.13302656,60.18960679],[25.13529668,60.19164668],[25.13499167,60.19260988],[25.13011193,60.19668553],[25.12692805,60.19656651],[25.12195736,60.19568814],[25.11794624,60.19376388],[25.11099842,60.19442683],[25.10638113,60.19397423],[25.09751117,60.19032034],[25.09254709,60.18754315],[25.08975233,60.18827229],[25.090788,60.19051713],[25.09360812,60.19246477],[25.1011976,60.1963506],[25.10132277,60.19838321],[25.10318081,60.20018933],[25.11458462,60.2068057],[25.11557402,60.20845941],[25.12077604,60.21367843],[25.12097292,60.21410071],[25.11950091,60.21442724],[25.11793744,60.21477403],[25.1079221,60.207691],[25.09883643,60.20639968],[25.09719871,60.2051227],[25.09649034,60.20364764],[25.09794902,60.20209563],[25.09658777,60.20053936],[25.08924755,60.20116606],[25.07606619,60.19865512],[25.06794158,60.19872142],[25.06141782,60.19414191],[25.05090232,60.19277614],[25.04905045,60.19206729],[25.04757411,60.19097056],[25.04816993,60.18900252],[25.0466318,60.18771004],[25.04304187,60.18600473],[25.03576253,60.18486204],[25.03245015,60.18464262],[25.02744602,60.1868143],[25.02412889,60.19020332],[25.01898087,60.19039192],[25.00470137,60.19469535],[25.00014573,60.19679963],[25.00272527,60.19801568],[25.00828845,60.19803491],[25.0121244,60.19926416],[25.0162638,60.19888227],[25.02091852,60.19755653],[25.02319551,60.19747278],[25.02497796,60.19854911],[25.02367392,60.20194161],[25.02024934,60.20291882],[25.01752149,60.2049829],[25.01922516,60.20591535],[25.02422478,60.20683851],[25.02471621,60.2084722],[25.02097617,60.21096738],[25.01925466,60.21434688],[25.01116692,60.21423447],[25.00813893,60.21549689],[25.00675654,60.21729646],[25.00512009,60.21798758],[25.00156552,60.21878715],[24.99981766,60.22078961],[24.99959454,60.22174162],[24.99740566,60.22205242],[24.99569881,60.22197012],[24.99459932,60.22158588],[24.99064998,60.21792594],[24.99274668,60.21564383],[24.99244239,60.21237704],[24.99087219,60.21092466],[24.99327711,60.20938242],[24.99690225,60.20837853],[24.99916053,60.20929415],[24.99677684,60.21162307],[24.99742387,60.21325498],[24.99957859,60.21535654],[25.00349135,60.21523787],[25.00486139,60.21381633],[25.00422855,60.21279787],[25.00399786,60.20929368],[25.00228171,60.20707422],[24.99810138,60.20618898],[24.99429076,60.20810809],[24.98999453,60.2113636],[24.98658813,60.21314527],[24.98487755,60.21278102],[24.98384923,60.21256204],[24.98303998,60.20741744],[24.97947079,60.20062072],[24.98102109,60.19845785],[24.98315457,60.19762419],[24.98514764,60.19576766],[24.98437516,60.19343984],[24.9850352,60.18990036],[24.98365084,60.1836851],[24.97982186,60.18287639],[24.97601636,60.1771771],[24.97147661,60.17786311],[24.96787509,60.18010564],[24.96672732,60.1795768],[24.96318541,60.18029365],[24.96101384,60.17784422],[24.96107119,60.17629973],[24.96165406,60.17621459],[24.9623087,60.17492127],[24.96110522,60.17266093],[24.95435757,60.167034],[24.95404409,60.16509632],[24.96119258,60.15979562],[24.96259459,60.15804878],[24.9630029,60.15593084],[24.96030095,60.15452557],[24.95678495,60.15338725],[24.95065594,60.15520086],[24.94071605,60.15368251],[24.93324412,60.15384612],[24.92781814,60.14938792],[24.92806085,60.14809816],[24.9272401,60.14656698],[24.92238227,60.14721422],[24.9220609,60.15016127],[24.92505722,60.15366441],[24.92183878,60.15442056],[24.91726227,60.15000005],[24.91428947,60.15079171],[24.9143171,60.15090062],[24.91177877,60.15144114],[24.90926277,60.15033425],[24.90645781,60.15192933],[24.90224073,60.15540789],[24.90895024,60.15746639],[24.90575347,60.15989627],[24.90016868,60.16278212],[24.89927548,60.16485257],[24.8977589,60.16645512],[24.89888609,60.16714196],[24.90266845,60.16732839],[24.90772946,60.16701317],[24.91257576,60.16754366],[24.91587145,60.16897028],[24.91372334,60.17022829],[24.91049932,60.17071191],[24.90611466,60.17064127],[24.90221891,60.17309407],[24.90555626,60.1743595],[24.90882883,60.17622278],[24.91242844,60.17548058],[24.91407382,60.17598312],[24.9125487,60.1781304],[24.91251459,60.18108768],[24.90936875,60.18359117],[24.90368288,60.18587154],[24.90126327,60.18537522],[24.9012019,60.18510229],[24.89944067,60.18438522],[24.89592288,60.18372072],[24.89357354,60.18619814],[24.89386074,60.18696778],[24.89139284,60.18770964],[24.89035133,60.18762562],[24.8836258,60.18853771],[24.8818935,60.19036327],[24.88217049,60.19092547],[24.87793895,60.19144231],[24.87529556,60.18965889],[24.87330082,60.19039194],[24.87144446,60.19216311],[24.87175528,60.19314506],[24.87116277,60.19407122],[24.86794875,60.19676003],[24.86495063,60.19809972],[24.86083189,60.19907495],[24.8541562,60.20142078],[24.85157697,60.20312364],[24.84822484,60.20456109],[24.8517994,60.20679614],[24.84997224,60.20891023],[24.8468217,60.20969422],[24.8459792,60.20956759],[24.84621087,60.21057232],[24.84806237,60.21859972],[24.8419134,60.22120038],[24.83140306,60.25405518],[24.83864551,60.25909761],[24.85781636,60.25360803],[24.87241683,60.25414307],[24.89282429,60.2685318],[24.91895026,60.27341733],[24.92779643,60.27507006],[24.94565258,60.27840383],[24.95626293,60.27634334],[24.965876,60.26630842],[24.9756267,60.26497528],[24.97733951,60.26855974],[24.98229058,60.27891665],[25.00014828,60.28631768],[25.02090642,60.28931786],[25.0533911,60.27601573],[25.07664524,60.2755509],[25.08800223,60.27124698],[25.08243619,60.24969955],[25.09137723,60.24518437],[25.13584404,60.23722825],[25.15988304,60.2488173],[25.15681729,60.25451357],[25.14462672,60.25924011],[25.14253495,60.26977891],[25.18765609,60.27988094],[25.19024995,60.28568136],[25.19627858,60.28196188],[25.21336004,60.29012396],[25.22952012,60.29784004],[25.25289238,60.2974591],[25.25449547,60.29522616],[25.25388921,60.28963147],[25.24386461,60.28488332]]]]},"geometry_name":"geom","properties":{"id":33,"kunta":"091","vuosi":2025,"nimi":"Helsinki","namn":"Helsingfors","name":"Helsinki"},"bbox":[24.8285261,60.09540144,25.25449547,60.29784004]},{"type":"Feature","id":"kunta1000k_2025.34","geometry":{"type":"Polygon","coordinates":[[[25.07623562,60.37290358],[25.08459844,60.37221229],[25.09037863,60.36629921],[25.11536144,60.36056629],[25.15173106,60.35927989],[25.13443523,60.34849357],[25.15240713,60.34612986],[25.1520215,60.34026609],[25.14323617,60.33534703],[25.12839578,60.33490657],[25.11745388,60.33561042],[25.10218843,60.33524848],[25.13565124,60.32048125],[25.16961423,60.31148626],[25.19306822,60.29224701],[25.19024995,60.28568136],[25.18765609,60.27988094],[25.14253495,60.26977891],[25.14462672,60.25924011],[25.15681729,60.25451357],[25.15988304,60.2488173],[25.13584404,60.23722825],[25.09137723,60.24518437],[25.08243619,60.24969955],[25.08800223,60.27124698],[25.07664524,60.2755509],[25.0533911,60.27601573],[25.02090642,60.28931786],[25.00014828,60.28631768],[24.98229058,60.27891665],[24.97733951,60.26855974],[24.9756267,60.26497528],[24.965876,60.26630842],[24.95626293,60.27634334],[24.94565258,60.27840383],[24.92779643,60.27507006],[24.91895026,60.27341733],[24.89282429,60.2685318],[24.87241683,60.25414307],[24.85781636,60.25360803],[24.83864551,60.25909761],[24.83140306,60.25405518],[24.78475411,60.241505],[24.76494085,60.27123726],[24.77180206,60.29923148],[24.76092794,60.32537628],[24.74623665,60.32227428],[24.7492832,60.34178332],[24.83045611,60.39445874],[24.86893915,60.40125489],[24.86868782,60.40004628],[24.86761474,60.39488529],[24.87672487,60.38472977],[24.90596394,60.36512344],[24.90689842,60.36449634],[24.95459148,60.33244895],[24.98400945,60.33292757],[25.00389162,60.33324734],[25.03764544,60.34230329],[25.04822565,60.34827618],[25.04922144,60.34883819],[25.02117795,60.36786867],[25.0313004,60.37158456],[25.04918478,60.37050905],[25.06440466,60.36959182],[25.06649727,60.37017772],[25.06874196,60.37080613],[25.07623562,60.37290358]]]},"geometry_name":"geom","properties":{"id":34,"kunta":"092","vuosi":2025,"nimi":"Vantaa","namn":"Vanda","name":"Vantaa"},"bbox":[24.74623665,60.23722825,25.19306822,60.40125489]},{"type":"Feature","id":"kunta1000k_2025.84","geometry":{"type":"Polygon","coordinates":[[[24.73916198,60.2071096],[24.7221761,60.20256273],[24.70182049,60.20624179],[24.67528749,60.21103141],[24.67747243,60.2153969],[24.70626395,60.2250076],[24.71589578,60.22472122],[24.7343201,60.22417147],[24.74487134,60.22038166],[24.75091363,60.21821061],[24.73916198,60.2071096]]]},"geometry_name":"geom","properties":{"id":84,"kunta":"235","vuosi":2025,"nimi":"Kauniainen","namn":"Grankulla","name":"Kauniainen"},"bbox":[24.67528749,60.20256273,24.75091363,60.2250076]}],"totalFeatures":4,"numberMatched":4,"numberReturned":4,"timeStamp":"2026-09-20T19:37:57.725Z","crs":{"type":"name","properties":{"name":"urn:ogc:def:crs:EPSG::4326"}},"bbox":[24.50016935,60.06267222,25.25449547,60.40125489]}